{
  "type": "FeatureCollection",
  "features": [
    {
      "type": "Feature",
      "properties": {
        "norad_id": 43823,
        "name": "GEO-KOMPSAT-2A",
        "group": "weather",
        "lat": -0.011449976553200462,
        "lon": 82.49865419641888,
        "alt_km": 35785.5682057477,
        "timestamp": "2025-12-24T14:43:28.638640+00:00",
        "meta_object_name": "GEO-KOMPSAT-2A",
        "meta_object_id": "2018-100A",
        "meta_epoch": "2025-12-23T23:16:38.882208",
        "meta_mean_motion": 1.00269322,
        "meta_eccentricity": 3.088e-05,
        "meta_inclination": 0.0454,
        "meta_ra_of_asc_node": 176.4118,
        "meta_arg_of_pericenter": 270.2699,
        "meta_mean_anomaly": 123.4879,
        "meta_ephemeris_type": 0,
        "meta_classification_type": "U",
        "meta_norad_cat_id": 43823,
        "meta_element_set_no": 999,
        "meta_rev_at_epoch": 2587,
        "meta_bstar": 0,
        "meta_mean_motion_dot": -3.23e-06,
        "meta_mean_motion_ddot": 0,
        "tle_line1": "1 43823U 18100A   25357.96989447 -.00000323  00000+0  00000+0 0  9995",
        "tle_line2": "2 43823   0.0454 176.4118 0000308 270.2699 123.4879  1.00269322 25870"
      },
      "geometry": {
        "type": "Point",
        "coordinates": [
          82.49865419641888,
          -0.011449976553200462
        ]
      }
    },
    {
      "type": "Feature",
      "properties": {
        "norad_id": 44387,
        "name": "METEOR-M2 2",
        "group": "weather",
        "lat": 22.688672928827476,
        "lon": -25.26746086215106,
        "alt_km": 810.6817440322357,
        "timestamp": "2025-12-24T14:43:28.638659+00:00",
        "meta_object_name": "METEOR-M2 2",
        "meta_object_id": "2019-038A",
        "meta_epoch": "2025-12-24T06:11:13.523424",
        "meta_mean_motion": 14.24296724,
        "meta_eccentricity": 0.00017577,
        "meta_inclination": 98.8983,
        "meta_ra_of_asc_node": 338.1279,
        "meta_arg_of_pericenter": 125.5641,
        "meta_mean_anomaly": 234.5701,
        "meta_ephemeris_type": 0,
        "meta_classification_type": "U",
        "meta_norad_cat_id": 44387,
        "meta_element_set_no": 999,
        "meta_rev_at_epoch": 33639,
        "meta_bstar": 0.00014102741,
        "meta_mean_motion_dot": 2.8e-06,
        "meta_mean_motion_ddot": 0,
        "tle_line1": "1 44387U 19038A   25358.25779541  .00000280  00000+0  14103-3 0  9991",
        "tle_line2": "2 44387  98.8983 338.1279 0001757 125.5641 234.5701 14.24296724336397"
      },
      "geometry": {
        "type": "Point",
        "coordinates": [
          -25.26746086215106,
          22.688672928827476
        ]
      }
    },
    {
      "type": "Feature",
      "properties": {
        "norad_id": 47719,
        "name": "ARKTIKA-M 1",
        "group": "weather",
        "lat": 48.47088427267953,
        "lon": 117.22811549333939,
        "alt_km": 26404.32291707399,
        "timestamp": "2025-12-24T14:43:28.638680+00:00",
        "meta_object_name": "ARKTIKA-M 1",
        "meta_object_id": "2021-016A",
        "meta_epoch": "2025-12-23T01:01:51.743136",
        "meta_mean_motion": 2.00630806,
        "meta_eccentricity": 0.72093828,
        "meta_inclination": 63.1759,
        "meta_ra_of_asc_node": 82.5898,
        "meta_arg_of_pericenter": 269.1646,
        "meta_mean_anomaly": 15.5425,
        "meta_ephemeris_type": 0,
        "meta_classification_type": "U",
        "meta_norad_cat_id": 47719,
        "meta_element_set_no": 999,
        "meta_rev_at_epoch": 3525,
        "meta_bstar": 0,
        "meta_mean_motion_dot": -6.7e-07,
        "meta_mean_motion_ddot": 0,
        "tle_line1": "1 47719U 21016A   25357.04295999 -.00000067  00000+0  00000+0 0  9999",
        "tle_line2": "2 47719  63.1759  82.5898 7209382 269.1646  15.5425  2.00630806 35258"
      },
      "geometry": {
        "type": "Point",
        "coordinates": [
          117.22811549333939,
          48.47088427267953
        ]
      }
    },
    {
      "type": "Feature",
      "properties": {
        "norad_id": 49008,
        "name": "FENGYUN 3E",
        "group": "weather",
        "lat": 25.750532237067937,
        "lon": -176.74744973803735,
        "alt_km": 824.3550394330232,
        "timestamp": "2025-12-24T14:43:28.638710+00:00",
        "meta_object_name": "FENGYUN 3E",
        "meta_object_id": "2021-062A",
        "meta_epoch": "2025-12-24T07:14:15.216000",
        "meta_mean_motion": 14.1988119,
        "meta_eccentricity": 8.668e-05,
        "meta_inclination": 98.7473,
        "meta_ra_of_asc_node": 358.6853,
        "meta_arg_of_pericenter": 193.4996,
        "meta_mean_anomaly": 166.6157,
        "meta_ephemeris_type": 0,
        "meta_classification_type": "U",
        "meta_norad_cat_id": 49008,
        "meta_element_set_no": 999,
        "meta_rev_at_epoch": 23176,
        "meta_bstar": 3.0166187e-05,
        "meta_mean_motion_dot": 2e-07,
        "meta_mean_motion_ddot": 0,
        "tle_line1": "1 49008U 21062A   25358.30156500  .00000020  00000+0  30166-4 0  9996",
        "tle_line2": "2 49008  98.7473 358.6853 0000866 193.4996 166.6157 14.19881190231763"
      },
      "geometry": {
        "type": "Point",
        "coordinates": [
          -176.74744973803735,
          25.750532237067937
        ]
      }
    },
    {
      "type": "Feature",
      "properties": {
        "norad_id": 51850,
        "name": "GOES 18",
        "group": "weather",
        "lat": -0.0011107749352562096,
        "lon": 177.24384600709135,
        "alt_km": 35787.566648939086,
        "timestamp": "2025-12-24T14:43:28.638729+00:00",
        "meta_object_name": "GOES 18",
        "meta_object_id": "2022-021A",
        "meta_epoch": "2025-12-24T07:39:36.756288",
        "meta_mean_motion": 1.00271078,
        "meta_eccentricity": 3.752e-05,
        "meta_inclination": 0.017,
        "meta_ra_of_asc_node": 183.9867,
        "meta_arg_of_pericenter": 139.7411,
        "meta_mean_anomaly": 107.2693,
        "meta_ephemeris_type": 0,
        "meta_classification_type": "U",
        "meta_norad_cat_id": 51850,
        "meta_element_set_no": 999,
        "meta_rev_at_epoch": 483,
        "meta_bstar": 0,
        "meta_mean_motion_dot": 1.18e-06,
        "meta_mean_motion_ddot": 0,
        "tle_line1": "1 51850U 22021A   25358.31917542  .00000118  00000+0  00000+0 0  9999",
        "tle_line2": "2 51850   0.0170 183.9867 0000375 139.7411 107.2693  1.00271078  4831"
      },
      "geometry": {
        "type": "Point",
        "coordinates": [
          177.24384600709135,
          -0.0011107749352562096
        ]
      }
    },
    {
      "type": "Feature",
      "properties": {
        "norad_id": 54234,
        "name": "NOAA 21 (JPSS-2)",
        "group": "weather",
        "lat": 34.34919129148074,
        "lon": 120.81455472631923,
        "alt_km": 825.4839670877309,
        "timestamp": "2025-12-24T14:43:28.638746+00:00",
        "meta_object_name": "NOAA 21 (JPSS-2)",
        "meta_object_id": "2022-150A",
        "meta_epoch": "2025-12-24T05:35:06.616608",
        "meta_mean_motion": 14.19527238,
        "meta_eccentricity": 0.00016973,
        "meta_inclination": 98.7477,
        "meta_ra_of_asc_node": 294.3983,
        "meta_arg_of_pericenter": 14.5818,
        "meta_mean_anomaly": 345.5407,
        "meta_ephemeris_type": 0,
        "meta_classification_type": "U",
        "meta_norad_cat_id": 54234,
        "meta_element_set_no": 999,
        "meta_rev_at_epoch": 16172,
        "meta_bstar": 6.9446214e-05,
        "meta_mean_motion_dot": 1.02e-06,
        "meta_mean_motion_ddot": 0,
        "tle_line1": "1 54234U 22150A   25358.23271547  .00000102  00000+0  69446-4 0  9997",
        "tle_line2": "2 54234  98.7477 294.3983 0001697  14.5818 345.5407 14.19527238161727"
      },
      "geometry": {
        "type": "Point",
        "coordinates": [
          120.81455472631923,
          34.34919129148074
        ]
      }
    },
    {
      "type": "Feature",
      "properties": {
        "norad_id": 54743,
        "name": "METEOSAT-12 (MTG-I1)",
        "group": "weather",
        "lat": -0.6815538405896299,
        "lon": -46.05680943859708,
        "alt_km": 35781.843313941965,
        "timestamp": "2025-12-24T14:43:28.638765+00:00",
        "meta_object_name": "METEOSAT-12 (MTG-I1)",
        "meta_object_id": "2022-170C",
        "meta_epoch": "2025-12-24T06:14:59.506944",
        "meta_mean_motion": 1.00270845,
        "meta_eccentricity": 0.00016026,
        "meta_inclination": 0.6987,
        "meta_ra_of_asc_node": 25.505,
        "meta_arg_of_pericenter": 240.7783,
        "meta_mean_anomaly": 280.1831,
        "meta_ephemeris_type": 0,
        "meta_classification_type": "U",
        "meta_norad_cat_id": 54743,
        "meta_element_set_no": 999,
        "meta_rev_at_epoch": 1122,
        "meta_bstar": 0,
        "meta_mean_motion_dot": 1.3e-07,
        "meta_mean_motion_ddot": 0,
        "tle_line1": "1 54743U 22170C   25358.26041096  .00000013  00000+0  00000+0 0  9998",
        "tle_line2": "2 54743   0.6987  25.5050 0001602 240.7783 280.1831  1.00270845 11228"
      },
      "geometry": {
        "type": "Point",
        "coordinates": [
          -46.05680943859708,
          -0.6815538405896299
        ]
      }
    }
  ]
}